SITRO-AIS-21
1 61739U 24199E   26068.94360728  .00001920  00000-0  18122-3 0  9991
2 61739  97.3330 273.2344 0013693  42.1108 318.1163 14.94747634116927
SITRO-AIS-23
1 61742U 24199H   26068.94375617  .00003096  00000-0  28446-3 0  9994
2 61742  97.3327 273.3902 0013480  42.7028 317.5239 14.95417613116939
